[{"OBJECT_NAME":"STARLINK-6202","OBJECT_ID":"2023-083W","EPOCH":"2026-03-09T02:08:13.087968","MEAN_MOTION":15.02535086,"ECCENTRICITY":6.907e-5,"INCLINATION":42.9997,"RA_OF_ASC_NODE":84.7262,"ARG_OF_PERICENTER":287.0195,"MEAN_ANOMALY":73.0572,"EPHEMERIS_TYPE":0,"CLASSIFICATION_TYPE":"U","NORAD_CAT_ID":56896,"ELEMENT_SET_NO":999,"REV_AT_EPOCH":15169,"BSTAR":2.9712e-5,"MEAN_MOTION_DOT":1.98e-6,"MEAN_MOTION_DDOT":0},{"OBJECT_NAME":"CZ-6A DEB","OBJECT_ID":"2022-151TF","EPOCH":"2026-03-09T20:10:56.828064","MEAN_MOTION":14.824189,"ECCENTRICITY":0.01303169,"INCLINATION":98.7184,"RA_OF_ASC_NODE":180.8188,"ARG_OF_PERICENTER":97.1353,"MEAN_ANOMALY":264.4696,"EPHEMERIS_TYPE":0,"CLASSIFICATION_TYPE":"U","NORAD_CAT_ID":54966,"ELEMENT_SET_NO":999,"REV_AT_EPOCH":17789,"BSTAR":0.0010552869,"MEAN_MOTION_DOT":9.753e-5,"MEAN_MOTION_DDOT":0}]
